{
    "links": {
        "self": "http://www.neowsapp.com/rest/v1/neo/3467259?api_key=iIulBulltgU6a56xZRHN4H3l9WmuAYTsLGpBGhQ2"
    },
    "id": "3467259",
    "neo_reference_id": "3467259",
    "name": "(2009 SJ2)",
    "designation": "2009 SJ2",
    "nasa_jpl_url": "http://ssd.jpl.nasa.gov/sbdb.cgi?sstr=3467259",
    "absolute_magnitude_h": 23.7,
    "estimated_diameter": {
        "kilometers": {
            "estimated_diameter_min": 0.0483676488,
            "estimated_diameter_max": 0.1081533507
        },
        "meters": {
            "estimated_diameter_min": 48.3676488219,
            "estimated_diameter_max": 108.1533506775
        },
        "miles": {
            "estimated_diameter_min": 0.0300542543,
            "estimated_diameter_max": 0.0672033557
        },
        "feet": {
            "estimated_diameter_min": 158.6865169607,
            "estimated_diameter_max": 354.8338390368
        }
    },
    "is_potentially_hazardous_asteroid": false,
    "close_approach_data": [
        {
            "close_approach_date": "2009-09-14",
            "close_approach_date_full": "2009-Sep-14 05:16",
            "epoch_date_close_approach": 1252905360000,
            "relative_velocity": {
                "kilometers_per_second": "7.5420731269",
                "kilometers_per_hour": "27151.4632567222",
                "miles_per_hour": "16870.8633774894"
            },
            "miss_distance": {
                "astronomical": "0.2303660899",
                "lunar": "89.6124089711",
                "kilometers": "34462276.369268513",
                "miles": "21413865.5617229594"
            },
            "orbiting_body": "Earth"
        }
    ],
    "orbital_data": {
        "orbit_id": "7",
        "orbit_determination_date": "2017-04-06 08:59:56",
        "first_observation_date": "2009-09-18",
        "last_observation_date": "2009-09-19",
        "data_arc_in_days": 1,
        "observations_used": 19,
        "orbit_uncertainty": "9",
        "minimum_orbit_intersection": ".230208",
        "jupiter_tisserand_invariant": "3.222",
        "epoch_osculation": "2455093.5",
        "eccentricity": ".5128336832338324",
        "semi_major_axis": "2.536194560770135",
        "inclination": "12.39732699703535",
        "ascending_node_longitude": "355.3221687660089",
        "orbital_period": "1475.272602288826",
        "perihelion_distance": "1.235548562772775",
        "perihelion_argument": "355.9151928924751",
        "aphelion_distance": "3.836840558767495",
        "perihelion_time": "2455088.902558262591",
        "mean_anomaly": "1.121880134491382",
        "mean_motion": ".2440226975282226",
        "equinox": "J2000",
        "orbit_class": {
            "orbit_class_type": "AMO",
            "orbit_class_description": "Near-Earth asteroid orbits similar to that of 1221 Amor",
            "orbit_class_range": "1.017 AU < q (perihelion) < 1.3 AU"
        }
    },
    "is_sentry_object": false
}